STARLINK-36832          
1 68805U 26089D   26117.53994905 -.00995044  33247-3 -17512-2 0  9996
2 68805  97.2858 322.6871 0000892  90.1606 269.9776 16.02053749   719
