{
  "norad_id": 68805,
  "name": "STARLINK-36832",
  "history": [
    {
      "epoch": "2026-04-27T12:57:31.597920Z",
      "apogee_km": 269.32503421333695,
      "perigee_km": 268.1389669088776,
      "latitude_deg": 2.6192217385632403e-05,
      "longitude_deg": -87.22286145684093,
      "height_km": 271.9365159271521,
      "semi_major_axis_km": 6646.869000561107,
      "eccentricity": 8.922e-05,
      "inclination_deg": 97.2858,
      "raan_deg": 322.6871,
      "arg_perigee_deg": 90.1606,
      "mean_anomaly_deg": 269.9776,
      "mean_motion_rev_day": 16.02053749
    }
  ]
}